[{"OBJECT_NAME":"STARLINK-31721","OBJECT_ID":"2024-074C","EPOCH":"2026-03-09T03:25:01.802208","MEAN_MOTION":15.27570564,"ECCENTRICITY":9.752e-5,"INCLINATION":43.0039,"RA_OF_ASC_NODE":346.3569,"ARG_OF_PERICENTER":263.6661,"MEAN_ANOMALY":96.4079,"EPHEMERIS_TYPE":0,"CLASSIFICATION_TYPE":"U","NORAD_CAT_ID":59536,"ELEMENT_SET_NO":999,"REV_AT_EPOCH":10593,"BSTAR":-3.877514e-6,"MEAN_MOTION_DOT":-3.69e-6,"MEAN_MOTION_DDOT":0},{"OBJECT_NAME":"PEGASUS DEB","OBJECT_ID":"1994-029AER","EPOCH":"2026-02-26T06:39:21.581568","MEAN_MOTION":15.03561005,"ECCENTRICITY":0.01227406,"INCLINATION":81.7323,"RA_OF_ASC_NODE":356.2383,"ARG_OF_PERICENTER":77.7128,"MEAN_ANOMALY":283.7806,"EPHEMERIS_TYPE":0,"CLASSIFICATION_TYPE":"U","NORAD_CAT_ID":39306,"ELEMENT_SET_NO":999,"REV_AT_EPOCH":9218,"BSTAR":0.0046128236,"MEAN_MOTION_DOT":0.00074995,"MEAN_MOTION_DDOT":0}]
